CSS (TIANHE)            
1 48274U 21035A   23265.49769821  .00022385  00000+0  24495-3 0  9996
2 48274  41.4737 283.8539 0007927  81.9275 278.2464 15.62724200137045
